[{"OBJECT_NAME":"ONEWEB-0012","OBJECT_ID":"2019-010A","EPOCH":"2026-04-30T07:10:42.614112","MEAN_MOTION":13.16594096,"ECCENTRICITY":0.0002281,"INCLINATION":87.9087,"RA_OF_ASC_NODE":238.2947,"ARG_OF_PERICENTER":105.0989,"MEAN_ANOMALY":255.0394,"EPHEMERIS_TYPE":0,"CLASSIFICATION_TYPE":"U","NORAD_CAT_ID":44057,"ELEMENT_SET_NO":999,"REV_AT_EPOCH":34526,"BSTAR":5.0596e-05,"MEAN_MOTION_DOT":3.2e-07,"MEAN_MOTION_DDOT":0.0},{"OBJECT_NAME":"ONEWEB-0010","OBJECT_ID":"2019-010B","EPOCH":"2026-04-30T05:57:45.014688","MEAN_MOTION":13.16594737,"ECCENTRICITY":0.0001783,"INCLINATION":87.9087,"RA_OF_ASC_NODE":238.3007,"ARG_OF_PERICENTER":90.0725,"MEAN_ANOMALY":270.0611,"EPHEMERIS_TYPE":0,"CLASSIFICATION_TYPE":"U","NORAD_CAT_ID":44058,"ELEMENT_SET_NO":999,"REV_AT_EPOCH":34530,"BSTAR":0.00011232000000000001,"MEAN_MOTION_DOT":5.6e-07,"MEAN_MOTION_DDOT":0.0},{"OBJECT_NAME":"ONEWEB-0008","OBJECT_ID":"2019-010C","EPOCH":"2026-04-30T06:34:12.694656","MEAN_MOTION":13.16593233,"ECCENTRICITY":0.0001754,"INCLINATION":87.9085,"RA_OF_ASC_NODE":238.2917,"ARG_OF_PERICENTER":108.5965,"MEAN_ANOMALY":251.5357,"EPHEMERIS_TYPE":0,"CLASSIFICATION_TYPE":"U","NORAD_CAT_ID":44059,"ELEMENT_SET_NO":999,"REV_AT_EPOCH":34542,"BSTAR":-0.00015728,"MEAN_MOTION_DOT":-4.7e-07,"MEAN_MOTION_DDOT":0.0},{"OBJECT_NAME":"ONEWEB-0007","OBJECT_ID":"2019-010D","EPOCH":"2026-04-29T23:11:53.191104","MEAN_MOTION":13.1554938,"ECCENTRICITY":0.0002055,"INCLINATION":87.8956,"RA_OF_ASC_NODE":268.8374,"ARG_OF_PERICENTER":91.2686,"MEAN_ANOMALY":268.868,"EPHEMERIS_TYPE":0,"CLASSIFICATION_TYPE":"U","NORAD_CAT_ID":44060,"ELEMENT_SET_NO":999,"REV_AT_EPOCH":34503,"BSTAR":-0.00028182,"MEAN_MOTION_DOT":-9.3e-07,"MEAN_MOTION_DDOT":0.0},{"OBJECT_NAME":"ONEWEB-0006","OBJECT_ID":"2019-010E","EPOCH":"2026-04-29T23:17:34.832256","MEAN_MOTION":13.15537133,"ECCENTRICITY":0.0001895,"INCLINATION":87.8965,"RA_OF_ASC_NODE":268.7964,"ARG_OF_PERICENTER":90.7747,"MEAN_ANOMALY":269.36,"EPHEMERIS_TYPE":0,"CLASSIFICATION_TYPE":"U","NORAD_CAT_ID":44061,"ELEMENT_SET_NO":999,"REV_AT_EPOCH":34508,"BSTAR":-0.0029013,"MEAN_MOTION_DOT":-1.079e-05,"MEAN_MOTION_DDOT":0.0},{"OBJECT_NAME":"ONEWEB-0011","OBJECT_ID":"2019-010F","EPOCH":"2026-04-29T22:31:57.123840","MEAN_MOTION":13.15547454,"ECCENTRICITY":0.000159,"INCLINATION":87.8966,"RA_OF_ASC_NODE":268.8115,"ARG_OF_PERICENTER":95.0507,"MEAN_ANOMALY":265.0805,"EPHEMERIS_TYPE":0,"CLASSIFICATION_TYPE":"U","NORAD_CAT_ID":44062,"ELEMENT_SET_NO":999,"REV_AT_EPOCH":34507,"BSTAR":0.00037265,"MEAN_MOTION_DOT":1.53e-06,"MEAN_MOTION_DDOT":0.0},{"OBJECT_NAME":"ONEWEB-0013","OBJECT_ID":"2020-008A","EPOCH":"2026-04-30T06:14:54.933792","MEAN_MOTION":13.09456068,"ECCENTRICITY":0.0002686,"INCLINATION":87.852,"RA_OF_ASC_NODE":62.4885,"ARG_OF_PERICENTER":96.698,"MEAN_ANOMALY":263.4452,"EPHEMERIS_TYPE":0,"CLASSIFICATION_TYPE":"U","NORAD_CAT_ID":45131,"ELEMENT_SET_NO":999,"REV_AT_EPOCH":29979,"BSTAR":-0.0012945,"MEAN_MOTION_DOT":-4.33e-06,"MEAN_MOTION_DDOT":0.0},{"OBJECT_NAME":"ONEWEB-0017","OBJECT_ID":"2020-008B","EPOCH":"2026-04-30T04:47:52.518624","MEAN_MOTION":13.10371794,"ECCENTRICITY":0.0001859,"INCLINATION":87.8851,"RA_OF_ASC_NODE":45.8175,"ARG_OF_PERICENTER":71.9026,"MEAN_ANOMALY":288.2304,"EPHEMERIS_TYPE":0,"CLASSIFICATION_TYPE":"U","NORAD_CAT_ID":45132,"ELEMENT_SET_NO":999,"REV_AT_EPOCH":30166,"BSTAR":-0.0018491,"MEAN_MOTION_DOT":-6.33e-06,"MEAN_MOTION_DDOT":0.0},{"OBJECT_NAME":"ONEWEB-0020","OBJECT_ID":"2020-008C","EPOCH":"2026-04-30T05:54:49.798080","MEAN_MOTION":13.10371209,"ECCENTRICITY":0.0001885,"INCLINATION":87.8862,"RA_OF_ASC_NODE":45.8033,"ARG_OF_PERICENTER":78.3715,"MEAN_ANOMALY":281.7624,"EPHEMERIS_TYPE":0,"CLASSIFICATION_TYPE":"U","NORAD_CAT_ID":45133,"ELEMENT_SET_NO":999,"REV_AT_EPOCH":30206,"BSTAR":0.0018188,"MEAN_MOTION_DOT":6.48e-06,"MEAN_MOTION_DDOT":0.0},{"OBJECT_NAME":"ONEWEB-0021","OBJECT_ID":"2020-008D","EPOCH":"2026-04-30T06:16:20.212320","MEAN_MOTION":13.10370245,"ECCENTRICITY":0.000196,"INCLINATION":87.8847,"RA_OF_ASC_NODE":45.8204,"ARG_OF_PERICENTER":77.9781,"MEAN_ANOMALY":282.1566,"EPHEMERIS_TYPE":0,"CLASSIFICATION_TYPE":"U","NORAD_CAT_ID":45134,"ELEMENT_SET_NO":999,"REV_AT_EPOCH":30237,"BSTAR":0.00015619,"MEAN_MOTION_DOT":6.7e-07,"MEAN_MOTION_DDOT":0.0},{"OBJECT_NAME":"ONEWEB-0023","OBJECT_ID":"2020-008F","EPOCH":"2026-04-30T06:31:51.168864","MEAN_MOTION":13.1036951,"ECCENTRICITY":0.0001907,"INCLINATION":87.8854,"RA_OF_ASC_NODE":45.7977,"ARG_OF_PERICENTER":83.6558,"MEAN_ANOMALY":276.4787,"EPHEMERIS_TYPE":0,"CLASSIFICATION_TYPE":"U","NORAD_CAT_ID":45136,"ELEMENT_SET_NO":999,"REV_AT_EPOCH":30180,"BSTAR":-0.0014504000000000001,"MEAN_MOTION_DOT":-4.94e-06,"MEAN_MOTION_DDOT":0.0},{"OBJECT_NAME":"ONEWEB-0024","OBJECT_ID":"2020-008G","EPOCH":"2026-04-30T05:52:26.604768","MEAN_MOTION":13.10371829,"ECCENTRICITY":0.0001906,"INCLINATION":87.8861,"RA_OF_ASC_NODE":45.793,"ARG_OF_PERICENTER":76.9198,"MEAN_ANOMALY":283.2142,"EPHEMERIS_TYPE":0,"CLASSIFICATION_TYPE":"U","NORAD_CAT_ID":45137,"ELEMENT_SET_NO":999,"REV_AT_EPOCH":30196,"BSTAR":0.0019585,"MEAN_MOTION_DOT":6.96e-06,"MEAN_MOTION_DDOT":0.0},{"OBJECT_NAME":"ONEWEB-0025","OBJECT_ID":"2020-008H","EPOCH":"2026-04-30T05:50:13.909920","MEAN_MOTION":13.10078194,"ECCENTRICITY":0.0002379,"INCLINATION":87.8864,"RA_OF_ASC_NODE":45.7808,"ARG_OF_PERICENTER":47.9946,"MEAN_ANOMALY":312.1383,"EPHEMERIS_TYPE":0,"CLASSIFICATION_TYPE":"U","NORAD_CAT_ID":45138,"ELEMENT_SET_NO":999,"REV_AT_EPOCH":30229,"BSTAR":0.0021195,"MEAN_MOTION_DOT":7.49e-06,"MEAN_MOTION_DDOT":0.0},{"OBJECT_NAME":"ONEWEB-0026","OBJECT_ID":"2020-008J","EPOCH":"2026-04-30T05:51:37.643616","MEAN_MOTION":13.11419198,"ECCENTRICITY":0.0001707,"INCLINATION":87.8933,"RA_OF_ASC_NODE":30.5999,"ARG_OF_PERICENTER":74.0222,"MEAN_ANOMALY":286.1094,"EPHEMERIS_TYPE":0,"CLASSIFICATION_TYPE":"U","NORAD_CAT_ID":45139,"ELEMENT_SET_NO":999,"REV_AT_EPOCH":30482,"BSTAR":-0.0012515000000000002,"MEAN_MOTION_DOT":-4.31e-06,"MEAN_MOTION_DDOT":0.0},{"OBJECT_NAME":"ONEWEB-0028","OBJECT_ID":"2020-008K","EPOCH":"2026-04-30T04:52:08.138208","MEAN_MOTION":13.10849307,"ECCENTRICITY":0.000223,"INCLINATION":87.892,"RA_OF_ASC_NODE":30.6117,"ARG_OF_PERICENTER":90.1457,"MEAN_ANOMALY":269.9926,"EPHEMERIS_TYPE":0,"CLASSIFICATION_TYPE":"U","NORAD_CAT_ID":45140,"ELEMENT_SET_NO":999,"REV_AT_EPOCH":30233,"BSTAR":0.0018235999999999999,"MEAN_MOTION_DOT":6.54e-06,"MEAN_MOTION_DDOT":0.0},{"OBJECT_NAME":"ONEWEB-0032","OBJECT_ID":"2020-008L","EPOCH":"2026-04-30T04:50:16.035072","MEAN_MOTION":13.10372781,"ECCENTRICITY":0.0002168,"INCLINATION":87.8853,"RA_OF_ASC_NODE":45.8182,"ARG_OF_PERICENTER":89.8253,"MEAN_ANOMALY":270.3123,"EPHEMERIS_TYPE":0,"CLASSIFICATION_TYPE":"U","NORAD_CAT_ID":45141,"ELEMENT_SET_NO":999,"REV_AT_EPOCH":30201,"BSTAR":-0.0016801,"MEAN_MOTION_DOT":-5.74e-06,"MEAN_MOTION_DDOT":0.0}]