ONEWEB-0012             
1 44057U 19010A   26120.29910433  .00000032  00000+0  50596-4 0  9996
2 44057  87.9087 238.2947 0002281 105.0989 255.0394 13.16594096345263
ONEWEB-0010             
1 44058U 19010B   26120.24843767  .00000056  00000+0  11232-3 0  9996
2 44058  87.9087 238.3007 0001783  90.0725 270.0611 13.16594737345305
ONEWEB-0008             
1 44059U 19010C   26120.27375804 -.00000047  00000+0 -15728-3 0  9998
2 44059  87.9085 238.2917 0001754 108.5965 251.5357 13.16593233345426
ONEWEB-0007             
1 44060U 19010D   26119.96658786 -.00000093  00000+0 -28182-3 0  9996
2 44060  87.8956 268.8374 0002055  91.2686 268.8680 13.15549380345033
ONEWEB-0006             
1 44061U 19010E   26119.97054204 -.00001079  00000+0 -29013-2 0  9991
2 44061  87.8965 268.7964 0001895  90.7747 269.3600 13.15537133345087
ONEWEB-0011             
1 44062U 19010F   26119.93885560  .00000153  00000+0  37265-3 0  9994
2 44062  87.8966 268.8115 0001590  95.0507 265.0805 13.15547454345078
ONEWEB-0013             
1 45131U 20008A   26120.26035803 -.00000433  00000+0 -12945-2 0  9996
2 45131  87.8520  62.4885 0002686  96.6980 263.4452 13.09456068299793
ONEWEB-0017             
1 45132U 20008B   26120.19991341 -.00000633  00000+0 -18491-2 0  9991
2 45132  87.8851  45.8175 0001859  71.9026 288.2304 13.10371794301661
ONEWEB-0020             
1 45133U 20008C   26120.24640970  .00000648  00000+0  18188-2 0  9994
2 45133  87.8862  45.8033 0001885  78.3715 281.7624 13.10371209302061
ONEWEB-0021             
1 45134U 20008D   26120.26134505  .00000067  00000+0  15619-3 0  9991
2 45134  87.8847  45.8204 0001960  77.9781 282.1566 13.10370245302370
ONEWEB-0023             
1 45136U 20008F   26120.27212001 -.00000494  00000+0 -14504-2 0  9999
2 45136  87.8854  45.7977 0001907  83.6558 276.4787 13.10369510301804
ONEWEB-0024             
1 45137U 20008G   26120.24475237  .00000696  00000+0  19585-2 0  9995
2 45137  87.8861  45.7930 0001906  76.9198 283.2142 13.10371829301960
ONEWEB-0025             
1 45138U 20008H   26120.24321655  .00000749  00000+0  21195-2 0  9999
2 45138  87.8864  45.7808 0002379  47.9946 312.1383 13.10078194302297
ONEWEB-0026             
1 45139U 20008J   26120.24418569 -.00000431  00000+0 -12515-2 0  9997
2 45139  87.8933  30.5999 0001707  74.0222 286.1094 13.11419198304824
ONEWEB-0028             
1 45140U 20008K   26120.20287197  .00000654  00000+0  18236-2 0  9997
2 45140  87.8920  30.6117 0002230  90.1457 269.9926 13.10849307302331
ONEWEB-0032             
1 45141U 20008L   26120.20157448 -.00000574  00000+0 -16801-2 0  9992
2 45141  87.8853  45.8182 0002168  89.8253 270.3123 13.10372781302013
